{
  "type": "FeatureCollection",
  "features": [
    {
      "type": "Feature",
      "properties": {
        "norad_id": 32275,
        "name": "COSMOS 2433 (720)",
        "group": "glo-ops",
        "lat": 12.88249821629738,
        "lon": -32.09276752740329,
        "alt_km": 19135.23710837654,
        "timestamp": "2025-12-19T04:59:48.566913+00:00",
        "meta_object_name": "COSMOS 2433 (720)",
        "meta_object_id": "2007-052A",
        "meta_epoch": "2025-12-18T06:01:45.286176",
        "meta_mean_motion": 2.13104131,
        "meta_eccentricity": 0.00053253,
        "meta_inclination": 65.6801,
        "meta_ra_of_asc_node": 322.0201,
        "meta_arg_of_pericenter": 254.759,
        "meta_mean_anomaly": 105.1749,
        "meta_ephemeris_type": 0,
        "meta_classification_type": "U",
        "meta_norad_cat_id": 32275,
        "meta_element_set_no": 999,
        "meta_rev_at_epoch": 14120,
        "meta_bstar": 0,
        "meta_mean_motion_dot": -6.3e-07,
        "meta_mean_motion_ddot": 0,
        "tle_line1": "1 32275U 07052A   25352.25121859 -.00000063  00000+0  00000+0 0  9991",
        "tle_line2": "2 32275  65.6801 322.0201 0005325 254.7590 105.1749  2.13104131141205"
      },
      "geometry": {
        "type": "Point",
        "coordinates": [
          -32.09276752740329,
          12.88249821629738
        ]
      }
    },
    {
      "type": "Feature",
      "properties": {
        "norad_id": 32276,
        "name": "COSMOS 2432 (719)",
        "group": "glo-ops",
        "lat": -37.08306331452477,
        "lon": -57.86985542752395,
        "alt_km": 19105.754351394702,
        "timestamp": "2025-12-19T04:59:48.566936+00:00",
        "meta_object_name": "COSMOS 2432 (719)",
        "meta_object_id": "2007-052B",
        "meta_epoch": "2025-12-18T13:03:56.692224",
        "meta_mean_motion": 2.13103303,
        "meta_eccentricity": 0.00113252,
        "meta_inclination": 65.6958,
        "meta_ra_of_asc_node": 322.1345,
        "meta_arg_of_pericenter": 313.2452,
        "meta_mean_anomaly": 216.061,
        "meta_ephemeris_type": 0,
        "meta_classification_type": "U",
        "meta_norad_cat_id": 32276,
        "meta_element_set_no": 999,
        "meta_rev_at_epoch": 14123,
        "meta_bstar": 0,
        "meta_mean_motion_dot": -6.2e-07,
        "meta_mean_motion_ddot": 0,
        "tle_line1": "1 32276U 07052B   25352.54440616 -.00000062  00000+0  00000+0 0  9998",
        "tle_line2": "2 32276  65.6958 322.1345 0011325 313.2452 216.0610  2.13103303141236"
      },
      "geometry": {
        "type": "Point",
        "coordinates": [
          -57.86985542752395,
          -37.08306331452477
        ]
      }
    },
    {
      "type": "Feature",
      "properties": {
        "norad_id": 32393,
        "name": "COSMOS 2434 (721)",
        "group": "glo-ops",
        "lat": -63.77770045454418,
        "lon": 95.81122715690853,
        "alt_km": 19147.507357137427,
        "timestamp": "2025-12-19T04:59:48.566952+00:00",
        "meta_object_name": "COSMOS 2434 (721)",
        "meta_object_id": "2007-065A",
        "meta_epoch": "2025-12-18T04:23:29.536800",
        "meta_mean_motion": 2.13101428,
        "meta_eccentricity": 0.00044399,
        "meta_inclination": 64.3148,
        "meta_ra_of_asc_node": 198.0196,
        "meta_arg_of_pericenter": 71.1558,
        "meta_mean_anomaly": 127.0412,
        "meta_ephemeris_type": 0,
        "meta_classification_type": "U",
        "meta_norad_cat_id": 32393,
        "meta_element_set_no": 999,
        "meta_rev_at_epoch": 13991,
        "meta_bstar": 0,
        "meta_mean_motion_dot": 1.1e-06,
        "meta_mean_motion_ddot": 0,
        "tle_line1": "1 32393U 07065A   25352.18298075  .00000110  00000+0  00000+0 0  9995",
        "tle_line2": "2 32393  64.3148 198.0196 0004439  71.1558 127.0412  2.13101428139911"
      },
      "geometry": {
        "type": "Point",
        "coordinates": [
          95.81122715690853,
          -63.77770045454418
        ]
      }
    },
    {
      "type": "Feature",
      "properties": {
        "norad_id": 32395,
        "name": "COSMOS 2436 (723)",
        "group": "glo-ops",
        "lat": 33.50448682735297,
        "lon": -143.3620370409398,
        "alt_km": 19086.309274661784,
        "timestamp": "2025-12-19T04:59:48.566965+00:00",
        "meta_object_name": "COSMOS 2436 (723)",
        "meta_object_id": "2007-065C",
        "meta_epoch": "2025-12-16T08:11:52.503360",
        "meta_mean_motion": 2.13100112,
        "meta_eccentricity": 0.00177699,
        "meta_inclination": 64.3235,
        "meta_ra_of_asc_node": 198.1521,
        "meta_arg_of_pericenter": 9.2217,
        "meta_mean_anomaly": 349.3751,
        "meta_ephemeris_type": 0,
        "meta_classification_type": "U",
        "meta_norad_cat_id": 32395,
        "meta_element_set_no": 999,
        "meta_rev_at_epoch": 13982,
        "meta_bstar": 0,
        "meta_mean_motion_dot": 1.1e-06,
        "meta_mean_motion_ddot": 0,
        "tle_line1": "1 32395U 07065C   25350.34157990  .00000110  00000+0  00000+0 0  9993",
        "tle_line2": "2 32395  64.3235 198.1521 0017769   9.2217 349.3751  2.13100112139821"
      },
      "geometry": {
        "type": "Point",
        "coordinates": [
          -143.3620370409398,
          33.50448682735297
        ]
      }
    },
    {
      "type": "Feature",
      "properties": {
        "norad_id": 36111,
        "name": "COSMOS 2456 (730)",
        "group": "glo-ops",
        "lat": 52.99502266544356,
        "lon": 115.49626094161304,
        "alt_km": 19128.36008279331,
        "timestamp": "2025-12-19T04:59:48.566977+00:00",
        "meta_object_name": "COSMOS 2456 (730)",
        "meta_object_id": "2009-070A",
        "meta_epoch": "2025-12-18T06:55:18.738048",
        "meta_mean_motion": 2.13103695,
        "meta_eccentricity": 0.00031882,
        "meta_inclination": 64.9035,
        "meta_ra_of_asc_node": 77.1481,
        "meta_arg_of_pericenter": 297.6027,
        "meta_mean_anomaly": 138.5871,
        "meta_ephemeris_type": 0,
        "meta_classification_type": "U",
        "meta_norad_cat_id": 36111,
        "meta_element_set_no": 999,
        "meta_rev_at_epoch": 12457,
        "meta_bstar": 0,
        "meta_mean_motion_dot": -4.1e-07,
        "meta_mean_motion_ddot": 0,
        "tle_line1": "1 36111U 09070A   25352.28841132 -.00000041  00000+0  00000+0 0  9998",
        "tle_line2": "2 36111  64.9035  77.1481 0003188 297.6027 138.5871  2.13103695124574"
      },
      "geometry": {
        "type": "Point",
        "coordinates": [
          115.49626094161304,
          52.99502266544356
        ]
      }
    },
    {
      "type": "Feature",
      "properties": {
        "norad_id": 36112,
        "name": "COSMOS 2457 (733)",
        "group": "glo-ops",
        "lat": -9.917145404366703,
        "lon": -98.329637730663,
        "alt_km": 19121.617558632544,
        "timestamp": "2025-12-19T04:59:48.566988+00:00",
        "meta_object_name": "COSMOS 2457 (733)",
        "meta_object_id": "2009-070B",
        "meta_epoch": "2025-12-18T11:41:17.961216",
        "meta_mean_motion": 2.13101033,
        "meta_eccentricity": 0.00046158,
        "meta_inclination": 64.8891,
        "meta_ra_of_asc_node": 76.9887,
        "meta_arg_of_pericenter": 160.5919,
        "meta_mean_anomaly": 197.0462,
        "meta_ephemeris_type": 0,
        "meta_classification_type": "U",
        "meta_norad_cat_id": 36112,
        "meta_element_set_no": 999,
        "meta_rev_at_epoch": 12457,
        "meta_bstar": 0,
        "meta_mean_motion_dot": -3.9e-07,
        "meta_mean_motion_ddot": 0,
        "tle_line1": "1 36112U 09070B   25352.48701344 -.00000039  00000+0  00000+0 0  9998",
        "tle_line2": "2 36112  64.8891  76.9887 0004615 160.5919 197.0462  2.13101033124575"
      },
      "geometry": {
        "type": "Point",
        "coordinates": [
          -98.329637730663,
          -9.917145404366703
        ]
      }
    },
    {
      "type": "Feature",
      "properties": {
        "norad_id": 36402,
        "name": "COSMOS 2460 (732)",
        "group": "glo-ops",
        "lat": -9.571406878347087,
        "lon": 144.94139893925936,
        "alt_km": 19131.08237468454,
        "timestamp": "2025-12-19T04:59:48.567000+00:00",
        "meta_object_name": "COSMOS 2460 (732)",
        "meta_object_id": "2010-007C",
        "meta_epoch": "2025-12-18T23:03:28.519200",
        "meta_mean_motion": 2.13106274,
        "meta_eccentricity": 0.00025695,
        "meta_inclination": 65.526,
        "meta_ra_of_asc_node": 320.5627,
        "meta_arg_of_pericenter": 278.231,
        "meta_mean_anomaly": 82.4152,
        "meta_ephemeris_type": 0,
        "meta_classification_type": "U",
        "meta_norad_cat_id": 36402,
        "meta_element_set_no": 999,
        "meta_rev_at_epoch": 12289,
        "meta_bstar": 0,
        "meta_mean_motion_dot": -6e-07,
        "meta_mean_motion_ddot": 0,
        "tle_line1": "1 36402U 10007C   25352.96074675 -.00000060  00000+0  00000+0 0  9999",
        "tle_line2": "2 36402  65.5260 320.5627 0002569 278.2310  82.4152  2.13106274122891"
      },
      "geometry": {
        "type": "Point",
        "coordinates": [
          144.94139893925936,
          -9.571406878347087
        ]
      }
    }
  ]
}